{"type": "FeatureCollection", "features": [ {"type": "Feature", "properties": {"norad_id": 34962, "name": "COSMOS 2251 DEB", "group": "cosmos-2251-debris", "lat": 5.8268467183373565, "lon": -179.2694413443079, "alt_km": 735.3001140880933, "timestamp": "2025-12-20T09:36:02.044709+00:00", "meta": {"OBJECT_NAME": "COSMOS 2251 DEB", "OBJECT_ID": "1993-036AER", "EPOCH": "2025-12-18T22:43:00.041664", "MEAN_MOTION": 14.4653439, "ECCENTRICITY": 0.00188463, "INCLINATION": 74.0286, "RA_OF_ASC_NODE": 181.7701, "ARG_OF_PERICENTER": 294.3203, "MEAN_ANOMALY": 65.5987, "EPHEMERIS_TYPE": 0, "CLASSIFICATION_TYPE": "U", "NORAD_CAT_ID": 34962, "ELEMENT_SET_NO": 999, "REV_AT_EPOCH": 87668, "BSTAR": 0.00031666528, "MEAN_MOTION_DOT": 1.116e-05, "MEAN_MOTION_DDOT": 0}, "tle": {"line1": "1 34962U 93036AER 25352.94652826  .00001116  00000+0  31667-3 0  9998", "line2": "2 34962  74.0286 181.7701 0018846 294.3203  65.5987 14.46534390876682"}}, "geometry": {"type": "Point", "coordinates": [-179.2694413443079, 5.8268467183373565]}}, {"type": "Feature", "properties": {"norad_id": 34963, "name": "COSMOS 2251 DEB", "group": "cosmos-2251-debris", "lat": 29.231263945983972, "lon": 37.58700730584432, "alt_km": 749.4197349470869, "timestamp": "2025-12-20T09:36:02.044718+00:00", "meta": {"OBJECT_NAME": "COSMOS 2251 DEB", "OBJECT_ID": "1993-036AES", "EPOCH": "2025-12-19T10:17:44.598624", "MEAN_MOTION": 14.51142917, "ECCENTRICITY": 0.0042291, "INCLINATION": 74.1714, "RA_OF_ASC_NODE": 30.2633, "ARG_OF_PERICENTER": 225.4927, "MEAN_ANOMALY": 134.2777, "EPHEMERIS_TYPE": 0, "CLASSIFICATION_TYPE": "U", "NORAD_CAT_ID": 34963, "ELEMENT_SET_NO": 999, "REV_AT_EPOCH": 86898, "BSTAR": 0.00083703, "MEAN_MOTION_DOT": 3.333e-05, "MEAN_MOTION_DDOT": 0}, "tle": {"line1": "1 34963U 93036AES 25353.42898841  .00003333  00000+0  83703-3 0  9993", "line2": "2 34963  74.1714  30.2633 0042291 225.4927 134.2777 14.51142917868982"}}, "geometry": {"type": "Point", "coordinates": [37.58700730584432, 29.231263945983972]}}, {"type": "Feature", "properties": {"norad_id": 34964, "name": "COSMOS 2251 DEB", "group": "cosmos-2251-debris", "lat": 72.87874297141052, "lon": 85.56838988413558, "alt_km": 895.1558253256426, "timestamp": "2025-12-20T09:36:02.044729+00:00", "meta": {"OBJECT_NAME": "COSMOS 2251 DEB", "OBJECT_ID": "1993-036AET", "EPOCH": "2025-12-18T07:25:04.519776", "MEAN_MOTION": 14.00628567, "ECCENTRICITY": 0.02123167, "INCLINATION": 73.9712, "RA_OF_ASC_NODE": 338.1457, "ARG_OF_PERICENTER": 195.4091, "MEAN_ANOMALY": 164.0515, "EPHEMERIS_TYPE": 0, "CLASSIFICATION_TYPE": "U", "NORAD_CAT_ID": 34964, "ELEMENT_SET_NO": 999, "REV_AT_EPOCH": 84556, "BSTAR": 0.00089791859, "MEAN_MOTION_DOT": 1.6e-05, "MEAN_MOTION_DDOT": 0}, "tle": {"line1": "1 34964U 93036AET 25352.30908009  .00001600  00000+0  89792-3 0  9997", "line2": "2 34964  73.9712 338.1457 0212316 195.4091 164.0515 14.00628567845561"}}, "geometry": {"type": "Point", "coordinates": [85.56838988413558, 72.87874297141052]}}, {"type": "Feature", "properties": {"norad_id": 34965, "name": "COSMOS 2251 DEB", "group": "cosmos-2251-debris", "lat": 50.511171952770184, "lon": 134.43303513492535, "alt_km": 743.4801253325768, "timestamp": "2025-12-20T09:36:02.044739+00:00", "meta": {"OBJECT_NAME": "COSMOS 2251 DEB", "OBJECT_ID": "1993-036AEU", "EPOCH": "2025-12-19T15:07:25.013568", "MEAN_MOTION": 14.48723509, "ECCENTRICITY": 0.0026426, "INCLINATION": 74.0517, "RA_OF_ASC_NODE": 115.568, "ARG_OF_PERICENTER": 241.9243, "MEAN_ANOMALY": 117.9244, "EPHEMERIS_TYPE": 0, "CLASSIFICATION_TYPE": "U", "NORAD_CAT_ID": 34965, "ELEMENT_SET_NO": 999, "REV_AT_EPOCH": 87213, "BSTAR": 0.0002461, "MEAN_MOTION_DOT": 9.04e-06, "MEAN_MOTION_DDOT": 0}, "tle": {"line1": "1 34965U 93036AEU 25353.63015062  .00000904  00000+0  24610-3 0  9997", "line2": "2 34965  74.0517 115.5680 0026426 241.9243 117.9244 14.48723509872136"}}, "geometry": {"type": "Point", "coordinates": [134.43303513492535, 50.511171952770184]}}, {"type": "Feature", "properties": {"norad_id": 34967, "name": "COSMOS 2251 DEB", "group": "cosmos-2251-debris", "lat": -21.590278053919082, "lon": 66.09630326717006, "alt_km": 776.2430497063106, "timestamp": "2025-12-20T09:36:02.044748+00:00", "meta": {"OBJECT_NAME": "COSMOS 2251 DEB", "OBJECT_ID": "1993-036AEW", "EPOCH": "2025-12-13T00:27:20.673792", "MEAN_MOTION": 14.44269018, "ECCENTRICITY": 0.00380101, "INCLINATION": 73.9933, "RA_OF_ASC_NODE": 253.3374, "ARG_OF_PERICENTER": 39.5345, "MEAN_ANOMALY": 320.8573, "EPHEMERIS_TYPE": 0, "CLASSIFICATION_TYPE": "U", "NORAD_CAT_ID": 34967, "ELEMENT_SET_NO": 999, "REV_AT_EPOCH": 64961, "BSTAR": 0.0011451852, "MEAN_MOTION_DOT": 3.946e-05, "MEAN_MOTION_DDOT": 0}, "tle": {"line1": "1 34967U 93036AEW 25347.01898928  .00003946  00000+0  11452-2 0  9992", "line2": "2 34967  73.9933 253.3374 0038010  39.5345 320.8573 14.44269018649616"}}, "geometry": {"type": "Point", "coordinates": [66.09630326717006, -21.590278053919082]}}, {"type": "Feature", "properties": {"norad_id": 34968, "name": "COSMOS 2251 DEB", "group": "cosmos-2251-debris", "lat": 60.390739380639474, "lon": 22.226397618522643, "alt_km": 723.1521302279498, "timestamp": "2025-12-20T09:36:02.044758+00:00", "meta": {"OBJECT_NAME": "COSMOS 2251 DEB", "OBJECT_ID": "1993-036AEX", "EPOCH": "2025-12-20T02:29:49.126848", "MEAN_MOTION": 14.59417792, "ECCENTRICITY": 0.0086985, "INCLINATION": 74.0382, "RA_OF_ASC_NODE": 233.0313, "ARG_OF_PERICENTER": 351.5589, "MEAN_ANOMALY": 8.4106, "EPHEMERIS_TYPE": 0, "CLASSIFICATION_TYPE": "U", "NORAD_CAT_ID": 34968, "ELEMENT_SET_NO": 999, "REV_AT_EPOCH": 88585, "BSTAR": 9.6085e-05, "MEAN_MOTION_DOT": 4.47e-06, "MEAN_MOTION_DDOT": 0}, "tle": {"line1": "1 34968U 93036AEX 25354.10404082  .00000447  00000+0  96085-4 0  9995", "line2": "2 34968  74.0382 233.0313 0086985 351.5589   8.4106 14.59417792885855"}}, "geometry": {"type": "Point", "coordinates": [22.226397618522643, 60.390739380639474]}}, {"type": "Feature", "properties": {"norad_id": 34969, "name": "COSMOS 2251 DEB", "group": "cosmos-2251-debris", "lat": 2.3105366224871933, "lon": -171.51695148507972, "alt_km": 744.4372615380544, "timestamp": "2025-12-20T09:36:02.044769+00:00", "meta": {"OBJECT_NAME": "COSMOS 2251 DEB", "OBJECT_ID": "1993-036AEY", "EPOCH": "2025-12-19T09:18:38.426400", "MEAN_MOTION": 14.32265352, "ECCENTRICITY": 0.0073239, "INCLINATION": 74.0141, "RA_OF_ASC_NODE": 10.9944, "ARG_OF_PERICENTER": 142.5473, "MEAN_ANOMALY": 218.0814, "EPHEMERIS_TYPE": 0, "CLASSIFICATION_TYPE": "U", "NORAD_CAT_ID": 34969, "ELEMENT_SET_NO": 999, "REV_AT_EPOCH": 65232, "BSTAR": 0.00018668, "MEAN_MOTION_DOT": 4.93e-06, "MEAN_MOTION_DDOT": 0}, "tle": {"line1": "1 34969U 93036AEY 25353.38794475  .00000493  00000+0  18668-3 0  9994", "line2": "2 34969  74.0141  10.9944 0073239 142.5473 218.0814 14.32265352652322"}}, "geometry": {"type": "Point", "coordinates": [-171.51695148507972, 2.3105366224871933]}}, {"type": "Feature", "properties": {"norad_id": 34971, "name": "COSMOS 2251 DEB", "group": "cosmos-2251-debris", "lat": 66.07077962585568, "lon": -49.20169463800166, "alt_km": 677.2601402951032, "timestamp": "2025-12-20T09:36:02.044806+00:00", "meta": {"OBJECT_NAME": "COSMOS 2251 DEB", "OBJECT_ID": "1993-036AFA", "EPOCH": "2025-12-18T11:38:13.277760", "MEAN_MOTION": 14.55642375, "ECCENTRICITY": 0.00693978, "INCLINATION": 73.9787, "RA_OF_ASC_NODE": 274.0839, "ARG_OF_PERICENTER": 138.3039, "MEAN_ANOMALY": 342.538, "EPHEMERIS_TYPE": 0, "CLASSIFICATION_TYPE": "U", "NORAD_CAT_ID": 34971, "ELEMENT_SET_NO": 999, "REV_AT_EPOCH": 66256, "BSTAR": 0.00012982435, "MEAN_MOTION_DOT": 5.55e-06, "MEAN_MOTION_DDOT": 0}, "tle": {"line1": "1 34971U 93036AFA 25352.48487590  .00000555  00000+0  12982-3 0  9996", "line2": "2 34971  73.9787 274.0839 0069397 138.3039 342.5380 14.55642375662563"}}, "geometry": {"type": "Point", "coordinates": [-49.20169463800166, 66.07077962585568]}}, {"type": "Feature", "properties": {"norad_id": 34972, "name": "COSMOS 2251 DEB", "group": "cosmos-2251-debris", "lat": 70.62318968670496, "lon": 89.62972512334703, "alt_km": 653.4975602615486, "timestamp": "2025-12-20T09:36:02.044817+00:00", "meta": {"OBJECT_NAME": "COSMOS 2251 DEB", "OBJECT_ID": "1993-036AFB", "EPOCH": "2025-12-19T02:24:29.780352", "MEAN_MOTION": 14.72980369, "ECCENTRICITY": 0.00332141, "INCLINATION": 73.988, "RA_OF_ASC_NODE": 37.4318, "ARG_OF_PERICENTER": 195.1149, "MEAN_ANOMALY": 195.1869, "EPHEMERIS_TYPE": 0, "CLASSIFICATION_TYPE": "U", "NORAD_CAT_ID": 34972, "ELEMENT_SET_NO": 999, "REV_AT_EPOCH": 87744, "BSTAR": 0.00092049297, "MEAN_MOTION_DOT": 5.933e-05, "MEAN_MOTION_DDOT": 0}, "tle": {"line1": "1 34972U 93036AFB 25353.10034468  .00005933  00000+0  92049-3 0  9996", "line2": "2 34972  73.9880  37.4318 0033214 195.1149 195.1869 14.72980369877449"}}, "geometry": {"type": "Point", "coordinates": [89.62972512334703, 70.62318968670496]}}, {"type": "Feature", "properties": {"norad_id": 34976, "name": "COSMOS 2251 DEB", "group": "cosmos-2251-debris", "lat": -73.44123070028711, "lon": -142.7642546915757, "alt_km": 630.6653871986828, "timestamp": "2025-12-20T09:36:02.044828+00:00", "meta": {"OBJECT_NAME": "COSMOS 2251 DEB", "OBJECT_ID": "1993-036AFF", "EPOCH": "2025-12-20T03:45:07.153056", "MEAN_MOTION": 14.7671662, "ECCENTRICITY": 0.0047854, "INCLINATION": 74.058, "RA_OF_ASC_NODE": 291.7337, "ARG_OF_PERICENTER": 336.8692, "MEAN_ANOMALY": 83.1588, "EPHEMERIS_TYPE": 0, "CLASSIFICATION_TYPE": "U", "NORAD_CAT_ID": 34976, "ELEMENT_SET_NO": 999, "REV_AT_EPOCH": 88383, "BSTAR": 0.0010233, "MEAN_MOTION_DOT": 7.275e-05, "MEAN_MOTION_DDOT": 0}, "tle": {"line1": "1 34976U 93036AFF 25354.15633279  .00007275  00000+0  10233-2 0  9996", "line2": "2 34976  74.0580 291.7337 0047854 336.8692  83.1588 14.76716620883835"}}, "geometry": {"type": "Point", "coordinates": [-142.7642546915757, -73.44123070028711]}}]}